[{"OBJECT_NAME":"STARLINK-6146","OBJECT_ID":"2023-090Z","EPOCH":"2026-03-09T22:30:45.952704","MEAN_MOTION":15.02534437,"ECCENTRICITY":0.00012028,"INCLINATION":43.0027,"RA_OF_ASC_NODE":273.0488,"ARG_OF_PERICENTER":269.6701,"MEAN_ANOMALY":90.4003,"EPHEMERIS_TYPE":0,"CLASSIFICATION_TYPE":"U","NORAD_CAT_ID":57124,"ELEMENT_SET_NO":999,"REV_AT_EPOCH":15045,"BSTAR":8.0813605e-5,"MEAN_MOTION_DOT":8.88e-6,"MEAN_MOTION_DDOT":0},{"OBJECT_NAME":"OBJECT H","OBJECT_ID":"2025-292H","EPOCH":"2026-03-09T22:24:53.558208","MEAN_MOTION":15.06373042,"ECCENTRICITY":0.00142604,"INCLINATION":97.6442,"RA_OF_ASC_NODE":145.7846,"ARG_OF_PERICENTER":348.9217,"MEAN_ANOMALY":11.1694,"EPHEMERIS_TYPE":0,"CLASSIFICATION_TYPE":"U","NORAD_CAT_ID":67000,"ELEMENT_SET_NO":999,"REV_AT_EPOCH":1338,"BSTAR":0.0005462937,"MEAN_MOTION_DOT":8.001e-5,"MEAN_MOTION_DDOT":0}]
